[{"OBJECT_NAME":"STARLINK-34280","OBJECT_ID":"2025-137A","EPOCH":"2026-03-09T22:36:04.714272","MEAN_MOTION":15.30212268,"ECCENTRICITY":0.00014065,"INCLINATION":53.159,"RA_OF_ASC_NODE":334.0621,"ARG_OF_PERICENTER":147.1912,"MEAN_ANOMALY":212.9177,"EPHEMERIS_TYPE":0,"CLASSIFICATION_TYPE":"U","NORAD_CAT_ID":64594,"ELEMENT_SET_NO":999,"REV_AT_EPOCH":4077,"BSTAR":0.00095608936,"MEAN_MOTION_DOT":0.00028075,"MEAN_MOTION_DDOT":0},{"OBJECT_NAME":"OBJECT BC","OBJECT_ID":"2025-313BC","EPOCH":"2026-03-09T04:33:08.504064","MEAN_MOTION":15.29126358,"ECCENTRICITY":0.00084789,"INCLINATION":97.3985,"RA_OF_ASC_NODE":144.811,"ARG_OF_PERICENTER":328.9209,"MEAN_ANOMALY":31.1528,"EPHEMERIS_TYPE":0,"CLASSIFICATION_TYPE":"U","NORAD_CAT_ID":67298,"ELEMENT_SET_NO":999,"REV_AT_EPOCH":789,"BSTAR":0.0026410397,"MEAN_MOTION_DOT":0.00075331,"MEAN_MOTION_DDOT":0}]
